OBJECT_NAME,OBJECT_ID,EPOCH,MEAN_MOTION,ECCENTRICITY,INCLINATION,RA_OF_ASC_NODE,ARG_OF_PERICENTER,MEAN_ANOMALY,EPHEMERIS_TYPE,CLASSIFICATION_TYPE,NORAD_CAT_ID,ELEMENT_SET_NO,REV_AT_EPOCH,BSTAR,MEAN_MOTION_DOT,MEAN_MOTION_DDOT
DMSP 5D-3 F16 (USA 172),2003-048A,2026-06-10T14:18:09.252288,14.14482576,.00074277,98.9892,185.3805,157.3103,313.8660,0,U,28054,999,16855,.18414331E-4,-.1E-6,0
METEOSAT-9 (MSG-2),2005-049B,2026-06-09T20:23:52.518624,1.00269219,.00016632,9.3440,54.2378,349.5448,206.0776,0,U,28912,999,692,0,.137E-5,0
DMSP 5D-3 F17 (USA 191),2006-050A,2026-06-10T14:14:42.058176,14.14992135,.00113063,98.7378,168.2985,76.2561,283.9870,0,U,29522,999,1149,.28783301E-4,.13E-6,0
FENGYUN 3A,2008-026A,2026-06-10T13:30:29.136672,14.19569818,.00093128,98.6882,102.5200,141.1967,218.9879,0,U,32958,999,93446,.46024402E-4,.54E-6,0
GOES 14,2009-033A,2026-06-10T12:16:24.587616,1.00113185,.00018494,1.6718,83.1232,6.6396,138.8739,0,U,35491,999,652,0,-.247E-5,0
DMSP 5D-3 F18 (USA 210),2009-057A,2026-06-10T13:32:51.178272,14.14893050,.00098481,98.9035,142.3480,270.6239,89.3806,0,U,35951,999,85865,.14666302E-3,.239E-5,0
EWS-G2 (GOES 15),2010-008A,2026-06-10T14:54:05.677056,1.00275702,.00054389,1.2587,82.9656,39.9333,63.2361,0,U,36411,999,5957,0,.36E-6,0
COMS 1,2010-032A,2026-06-03T23:47:39.107040,1.00270643,.0001016,4.7750,75.5286,4.5847,297.3769,0,U,36744,999,5095,0,-.334E-5,0
FENGYUN 3B,2010-059A,2026-06-10T15:59:06.390816,14.14839772,.00215057,98.9624,207.6531,202.7596,268.3796,0,U,37214,999,80650,.19415141E-4,-.8E-7,0
SUOMI NPP,2011-061A,2026-06-10T13:46:23.092896,14.19516020,.00018998,98.7953,102.4951,21.8270,338.2987,0,U,37849,999,75750,.49156439E-4,.59E-6,0
METEOSAT-10 (MSG-3),2012-035B,2026-06-10T08:09:36.095040,1.00275881,.00015067,4.6545,61.0471,332.8996,347.4002,0,U,38552,999,5078,0,.11E-6,0
METOP-B,2012-049A,2026-06-10T13:44:53.107296,14.21430905,.00026255,98.6506,213.2038,35.3149,324.8202,0,U,38771,999,71232,.5793355E-4,.83E-6,0
INSAT-3D,2013-038B,2026-06-10T12:11:47.531328,1.00272635,.00006989,1.9078,82.6242,314.5960,174.1167,0,U,39216,999,4701,0,-.322E-5,0
FENGYUN 3C,2013-052A,2026-06-10T14:42:02.027808,14.15753556,.00155688,98.4976,135.7894,45.6030,314.6416,0,U,39260,999,65763,.63845188E-4,.84E-6,0
METEOR-M 2,2014-037A,2026-06-10T14:23:01.783680,14.21459460,.00069729,98.5110,137.5710,60.2698,299.9173,0,U,40069,999,61838,.2051739E-5,-.38E-6,0
HIMAWARI-8,2014-060A,2026-06-10T12:14:54.731616,1.00270181,.00007713,0.0116,308.5204,158.1107,116.6315,0,U,40267,999,4269,0,-.258E-5,0
FENGYUN 2G,2014-090A,2026-06-09T20:00:10.522368,1.00276216,.00035152,5.6193,72.9049,153.2834,71.6860,0,U,40367,999,4192,0,-.287E-5,0
METEOSAT-11 (MSG-4),2015-034A,2026-06-10T06:29:32.896032,1.00278178,.0001721,3.1848,71.1496,7.0467,287.2978,0,U,40732,999,714,0,.81E-6,0
ELEKTRO-L 2,2015-074A,2026-06-10T01:14:32.122752,1.00271662,.00008802,6.6749,70.6113,278.5236,273.4303,0,U,41105,999,3843,0,-.102E-5,0
SENTINEL-3A,2016-011A,2026-06-10T14:59:04.366176,14.26738138,.00013701,98.6249,229.1020,103.7435,256.3898,0,U,41335,999,53712,.48839478E-4,.75E-6,0
INSAT-3DR,2016-054A,2026-06-10T13:38:17.491200,1.00270370,.00105174,0.0882,87.3235,186.7935,263.3666,0,U,41752,999,3575,0,-.59E-6,0
HIMAWARI-9,2016-064A,2026-06-10T12:14:54.731616,1.00271435,.00007769,0.0329,154.0063,341.8543,87.5194,0,U,41836,999,3514,0,-.257E-5,0
GOES 16,2016-071A,2026-06-10T12:47:34.847808,1.00270364,.00003291,0.3228,85.5820,309.1216,311.4089,0,U,41866,999,3503,0,-.73E-6,0
FENGYUN 4A,2016-077A,2026-06-10T15:35:25.804608,1.00272581,.00084263,2.3049,80.3624,151.5537,24.7334,0,U,41882,999,3486,0,-.34E-5,0
CYGFM05,2016-078A,2026-06-09T19:17:17.875968,15.56342667,.0006816,34.9574,309.4711,74.5123,285.6354,0,U,41884,999,52760,.32575E-3,.23758E-3,0
CYGFM04,2016-078B,2026-06-10T12:00:41.574816,15.61140400,.0005998,34.9326,272.8828,129.8861,230.2392,0,U,41885,999,52795,.31676553E-3,.27736E-3,0
CYGFM02,2016-078C,2026-06-10T13:51:51.434496,15.64074895,.00070173,34.9406,267.0951,131.6899,228.4429,0,U,41886,999,52813,.32814558E-3,.3227E-3,0
CYGFM01,2016-078D,2026-06-10T02:47:17.292768,15.57023062,.00066141,34.9405,308.5167,70.9828,289.1612,0,U,41887,999,52760,.33885816E-3,.25358E-3,0
CYGFM08,2016-078E,2026-06-10T14:23:38.255712,15.59672771,.00078093,34.9431,285.0634,111.3116,248.8443,0,U,41888,999,52794,.30717119E-3,.25422E-3,0
CYGFM07,2016-078G,2026-06-10T10:21:04.015008,15.59776470,.00064068,34.9447,274.5325,128.2062,231.9240,0,U,41890,999,52794,.35788715E-3,.29748E-3,0
CYGFM03,2016-078H,2026-06-10T14:15:45.692640,15.59769189,.00059113,34.9401,275.3870,115.9030,244.2305,0,U,41891,999,52794,.30547565E-3,.25359E-3,0
